     3.04           N: GNSS NAV DATA    M: MIXED            RINEX VERSION / TYPE
ssrcrin-13.4.4x                         20230102 010000 UTC PGM / RUN BY / DATE 
                                                            END OF HEADER       
S48 2023 01 02 00 59 28 0.000000000000E+00 0.000000000000E+00 9.000400000000E+04
     4.064568552000E+04-9.306250000000E-04 0.000000000000E+00 3.100000000000E+01
    -1.122142920000E+04-8.125000000000E-06 0.000000000000E+00 2.000000000000E+00
     6.126400000000E+00-9.160000000000E-04 0.000000000000E+00 0.000000000000E+00
S33 2023 01 02 01 00 48 1.257285475731E-08-4.547473508865E-12 9.002200000000E+04
    -2.661101648000E+04-1.800000000000E-04 0.000000000000E+00 3.100000000000E+01
    -3.270778472000E+04 1.250000000000E-05 1.250000000000E-08 2.000000000000E+00
    -5.302800000000E+00 2.012000000000E-03 0.000000000000E+00 6.300000000000E+01
R14 2023 01 02 01 15 00 2.415291965008E-05-0.000000000000E+00 9.000000000000E+04
     1.082174707031E+04-1.363201141357E-01 9.313225746155E-10 0.000000000000E+00
    -2.309045507812E+04-2.418899536133E-02-2.793967723846E-09-7.000000000000E+00
    -2.519931640625E+02-3.557447433472E+00 2.793967723846E-09 0.000000000000E+00
R17 2023 01 02 01 15 00 5.921097472310E-04 2.728484105319E-12 9.000000000000E+04
     4.894013671875E+02 1.459790229797E+00 1.862645149231E-09 0.000000000000E+00
    -1.561680517578E+04 2.348116874695E+00-2.793967723846E-09 4.000000000000E+00
     2.019044921875E+04 1.778637886047E+00-0.000000000000E+00 0.000000000000E+00
R15 2023 01 02 01 15 00 9.198114275932E-05-0.000000000000E+00 9.000000000000E+04
     8.969350585938E+02 8.314132690430E-01 2.793967723846E-09 0.000000000000E+00
    -1.989926611328E+04-2.018509864807E+00-2.793967723846E-09 0.000000000000E+00
     1.594825878906E+04-2.567217826843E+00 0.000000000000E+00 0.000000000000E+00
R18 2023 01 02 01 15 00 5.973502993584E-05 9.094947017729E-13 9.000000000000E+04
    -1.071603222656E+04 3.644828796387E-01 1.862645149231E-09 0.000000000000E+00
    -2.195572851562E+04 9.518690109253E-01-1.862645149231E-09-3.000000000000E+00
     7.264730957031E+03 3.429118156433E+00 0.000000000000E+00 0.000000000000E+00
R02 2023 01 02 01 15 00-2.335011959076E-05 0.000000000000E+00 9.000000000000E+04
     2.427399560547E+04 8.624324798584E-01-0.000000000000E+00 0.000000000000E+00
    -4.710258300781E+03-2.401199340820E-01-1.862645149231E-09-4.000000000000E+00
    -6.370354492188E+03 3.435158729553E+00 1.862645149231E-09 0.000000000000E+00
R01 2023 01 02 01 15 00 2.053473144770E-05 0.000000000000E+00 9.000000000000E+04
     2.207176513672E+04-1.683630943298E+00 0.000000000000E+00 0.000000000000E+00
     3.602192382812E+03 4.500293731689E-02-1.862645149231E-09 1.000000000000E+00
     1.226223535156E+04 3.017495155334E+00-0.000000000000E+00 0.000000000000E+00
R03 2023 01 02 01 15 00 7.016677409410E-05 0.000000000000E+00 9.000000000000E+04
     1.181614160156E+04 2.736609458923E+00-0.000000000000E+00 0.000000000000E+00
    -1.042885156250E+04-3.025836944580E-01-0.000000000000E+00 5.000000000000E+00
    -2.003532177734E+04 1.761837005615E+00 2.793967723846E-09 0.000000000000E+00
S31 2023 01 02 01 00 48 1.676380634308E-08-1.637090463191E-11 9.002500000000E+04
    -1.914774736000E+04-6.687500000000E-05 1.250000000000E-08 3.100000000000E+01
    -3.756712656000E+04 9.187500000000E-05 0.000000000000E+00 2.000000000000E+00
     1.892000000000E+00-2.000000000000E-05 0.000000000000E+00 1.820000000000E+02
S35 2023 01 02 01 00 48-3.632158041000E-08-1.546140993014E-11 9.002500000000E+04
    -2.416393616000E+04-8.375000000000E-05-7.500000000000E-08 3.100000000000E+01
    -3.455096752000E+04-6.606250000000E-04 3.750000000000E-08 2.000000000000E+00
    -6.725200000000E+00 1.076000000000E-03 6.250000000000E-08 2.390000000000E+02
C37 2023 01 02 01 00 00-8.609427604824E-04 1.225952672712E-11 0.000000000000E+00
     1.000000000000E+00 5.831250000000E+01 3.905519823434E-09-3.122582530542E+00
     2.840068191290E-06 5.938947433606E-04 1.121778041124E-05 5.282620464325E+03
     9.000000000000E+04-9.313225746155E-09 2.178535271184E+00 3.259629011154E-09
     9.476521630707E-01 1.257343750000E+02-2.698893720785E-01-6.710279510076E-09
    -3.189418566371E-10 0.000000000000E+00 8.870000000000E+02
     2.000000000000E+00 0.000000000000E+00-1.640000000000E-08-1.640000000000E-08
     9.001800000000E+04 1.000000000000E+00
C27 2023 01 02 01 00 00 7.525319233537E-05 5.599076757790E-12 0.000000000000E+00
     1.000000000000E+00-5.456250000000E+01 4.013024301427E-09-3.069812883971E-01
    -2.583488821983E-06 5.273653659970E-04 1.505948603153E-06 5.282619623184E+03
     9.000000000000E+04 5.122274160385E-09-1.998512195998E+00 8.381903171539E-09
     9.639349679434E-01 3.306093750000E+02 1.015081951632E+00-7.203157183267E-09
    -1.982225424788E-10 0.000000000000E+00 8.870000000000E+02
     2.000000000000E+00 0.000000000000E+00-4.300000000000E-09-4.300000000000E-09
     9.001800000000E+04 1.000000000000E+00
C28 2023 01 02 01 00 00 5.409284494817E-05 4.276579090856E-12 0.000000000000E+00
     1.000000000000E+00-5.196875000000E+01 4.013381459161E-09 3.137060673820E+00
    -2.392102032900E-06 2.292669378221E-04 2.057757228613E-06 5.282637189865E+03
     9.000000000000E+04 5.168840289116E-08-1.998718493779E+00 4.284083843231E-08
     9.638146458572E-01 3.197343750000E+02-1.682440394636E+00-7.216729177166E-09
    -1.817932867058E-10 0.000000000000E+00 8.870000000000E+02
     2.000000000000E+00 0.000000000000E+00-4.000000000000E-09-4.000000000000E-09
     9.001800000000E+04 1.000000000000E+00
C23 2023 01 02 01 00 00-8.707650704309E-04-2.424727085781E-13 0.000000000000E+00
     1.000000000000E+00 6.678125000000E+01 3.908377085308E-09-3.141304840550E+00
     3.217253834009E-06 2.303954679519E-04 1.058867201209E-05 5.282628618240E+03
     9.000000000000E+04-1.490116119385E-08 2.180446234258E+00-1.443549990654E-08
     9.462079279182E-01 1.396093750000E+02 5.116456650099E-01-6.747781072167E-09
    -3.135844906242E-10 0.000000000000E+00 8.870000000000E+02
     2.000000000000E+00 0.000000000000E+00 2.270000000000E-08 2.270000000000E-08
     9.001800000000E+04 1.000000000000E+00
C33 2023 01 02 01 00 00-8.857095381245E-04 4.510170015237E-12 0.000000000000E+00
     1.000000000000E+00-1.010937500000E+01 3.746584631717E-09 6.116288728204E-01
    -5.192123353481E-07 1.944096293300E-04 8.134171366692E-06 5.282625980377E+03
     9.000000000000E+04 3.678724169731E-08 7.513428173584E-02-3.073364496231E-08
     9.708366453231E-01 2.016093750000E+02-4.090982865743E-01-6.689921519227E-09
     4.518045337580E-10 0.000000000000E+00 8.870000000000E+02
     2.000000000000E+00 0.000000000000E+00-4.440000000000E-08-4.440000000000E-08
     9.001800000000E+04 1.000000000000E+00
C14 2023 01 02 01 00 00 3.251205198467E-04 3.851141627820E-11 7.860465750520E-19
     2.000000000000E+01-8.765625000000E+00 3.746584631717E-09 1.059146988398E+00
    -4.498288035393E-07 1.076794345863E-03 8.129514753819E-06 5.282626575470E+03
     9.000000000000E+04 1.313164830208E-07 8.081313076270E-02 4.470348358154E-08
     9.694177040242E-01 2.023281250000E+02-4.497375919816E-01-6.688492888290E-09
     4.878774649119E-10 0.000000000000E+00 8.870000000000E+02
     2.000000000000E+00 0.000000000000E+00 7.400000000000E-09 1.600000000000E-09
     9.001800000000E+04 1.900000000000E+01
C30 2023 01 02 01 00 00 1.237960532308E-06 2.664535259100E-14 0.000000000000E+00
     1.000000000000E+00-3.800000000000E+01 4.006238304477E-09-1.955762467414E-01
    -1.867301762104E-06 4.564768169075E-04 1.166947185993E-06 5.282618093491E+03
     9.000000000000E+04 1.117587089539E-08-2.037217845546E+00 3.259629011154E-08
     9.622438024596E-01 3.391718750000E+02 1.582274595631E-01-7.207443076077E-09
    -1.485776174256E-10 0.000000000000E+00 8.870000000000E+02
     2.000000000000E+00 0.000000000000E+00-9.700000000000E-09-9.700000000000E-09
     9.001800000000E+04 1.000000000000E+00
E24 2023 01 02 00 40 00-1.034798973706E-03-2.096101070492E-11 0.000000000000E+00
     2.000000000000E+01 1.537500000000E+02 2.782615907122E-09 6.414709270161E-01
     7.044523954391E-06 7.156177889556E-04 1.032091677189E-05 5.440638854980E+03
     8.880000000000E+04 1.676380634308E-08 2.725636275817E+00-7.450580596924E-09
     9.689283491492E-01 1.196875000000E+02 6.698008856783E-01-5.421654405097E-09
     2.000083311498E-11 2.580000000000E+02 2.243000000000E+03
     3.120000000000E+00 0.000000000000E+00-3.026798367500E-09 0.000000000000E+00
     9.004000000000E+04
E01 2023 01 02 00 50 00-5.884379497729E-04-6.778577699151E-12 0.000000000000E+00
     2.100000000000E+01 1.618125000000E+02 2.781544433919E-09 2.762427385457E+00
     7.497146725655E-06 2.537459367886E-04 9.121373295784E-06 5.440624507904E+03
     8.940000000000E+04 3.166496753693E-08 2.724777951059E+00 1.117587089539E-08
     9.714581060895E-01 1.516250000000E+02 2.097660327744E-01-5.419511458691E-09
     1.642925577302E-11 5.170000000000E+02 2.243000000000E+03
     3.120000000000E+00 0.000000000000E+00 2.328306436539E-10 2.328306436539E-10
     9.006500000000E+04
E33 2023 01 02 00 50 00-4.549508448690E-04 5.115907697473E-13 0.000000000000E+00
     2.100000000000E+01-1.394375000000E+02 2.552606326299E-09 2.047344777454E+00
    -6.359070539474E-06 3.250432200730E-04 5.887821316719E-06 5.440613739014E+03
     8.940000000000E+04 7.636845111847E-08-1.474683115157E+00 0.000000000000E+00
     9.986601080992E-01 2.281250000000E+02-1.180680642854E+00-5.529158883090E-09
    -2.621537768999E-10 5.170000000000E+02 2.243000000000E+03
     3.120000000000E+00 0.000000000000E+00-3.725290298462E-09-4.190951585770E-09
     9.006500000000E+04
